OBJECT_NAME,OBJECT_ID,EPOCH,MEAN_MOTION,ECCENTRICITY,INCLINATION,RA_OF_ASC_NODE,ARG_OF_PERICENTER,MEAN_ANOMALY,EPHEMERIS_TYPE,CLASSIFICATION_TYPE,NORAD_CAT_ID,ELEMENT_SET_NO,REV_AT_EPOCH,BSTAR,MEAN_MOTION_DOT,MEAN_MOTION_DDOT
STARLINK-37888,2026-133AD,2026-06-19T22:00:01.999584,16.08531039,.0000708,53.1569,308.5315,47.7010,70.0817,0,U,69535,999,230,-.16407233E-2,-.1440436E-1,.71230627E-3
STARLINK-37889,2026-133AE,2026-06-19T22:00:01.999584,16.03801676,.00008882,53.1593,308.6859,44.4515,0.6832,0,U,69536,999,230,-.25197406E-2,-.1645704E-1,.86042123E-3
2026-134A,2026-134A,2026-06-19T18:34:53.469408,15.09228586,.00141388,97.7008,240.8861,261.3562,98.6065,0,U,69538,999,70,.22384597E-3,.3502E-4,0
2026-134B,2026-134B,2026-06-19T18:34:12.240192,15.09385233,.0014277,97.6981,240.8857,264.1190,95.8411,0,U,69539,999,69,.22884772E-3,.3598E-4,0
2026-134C,2026-134C,2026-06-19T15:23:08.871360,15.09415292,.00136743,97.6987,240.7529,266.0697,93.8968,0,U,69540,999,67,.2209102E-3,.3473E-4,0
2026-134D,2026-134D,2026-06-19T16:58:21.436320,15.09472819,.00147587,97.7028,240.8214,265.2342,94.7201,0,U,69541,999,68,.22981172E-3,.3623E-4,0
2026-134E,2026-134E,2026-06-19T15:22:48.408384,15.09494119,.00144772,97.7047,240.7557,266.3582,93.5991,0,U,69542,999,67,.22239822E-3,.3505E-4,0
2026-134F,2026-134F,2026-06-19T18:33:31.256352,15.09541509,.00138528,97.6999,240.8870,267.8674,92.0968,0,U,69543,999,69,.22935796E-3,.3621E-4,0
2026-134G,2026-134G,2026-06-19T18:33:09.177696,15.09624282,.00143033,97.7043,240.8892,268.6729,91.2861,0,U,69544,999,69,.22039539E-3,.3486E-4,0
2026-134H,2026-134H,2026-06-19T16:57:25.375680,15.09689566,.00141848,97.7029,240.8223,270.3639,89.5964,0,U,69545,999,67,.2253972E-3,.3573E-4,0
SHIJIAN-31 (SJ-31),2026-136A,2026-06-16T20:21:12.015072,2.28095748,.7310406,63.4649,356.1810,171.7246,356.2040,0,U,69570,999,5,.28088E-3,.6163E-4,.24751E-6
GUOWANG OBJECT A,2026-137A,2026-06-20T05:54:11.833920,13.91751858,.0012413,50.0012,243.2156,236.5479,123.4234,0,U,69572,999,44,.30103E-4,-.108E-5,0
GUOWANG OBJECT B,2026-137B,2026-06-20T05:53:57.058656,13.91827881,.0012093,50.0010,243.2139,234.9285,125.0481,0,U,69573,999,45,.13931E-4,-.129E-5,0
GUOWANG OBJECT C,2026-137C,2026-06-20T04:10:14.508192,13.91925270,.0011725,49.9973,243.4914,235.3347,124.6448,0,U,69574,999,44,.13224E-4,-.13E-5,0
GUOWANG OBJECT D,2026-137D,2026-06-20T05:53:27.707712,13.91994805,.0011256,49.9974,243.2027,234.5686,125.4163,0,U,69575,999,45,.27782E-4,-.111E-5,0
GUOWANG OBJECT E,2026-137E,2026-06-19T17:49:43.269888,13.92013212,.0011031,50.0029,245.2235,235.6992,124.2864,0,U,69576,999,38,.4858E-4,-.84E-6,0
GUOWANG OBJECT F,2026-137F,2026-06-20T05:52:58.519200,13.92129912,.0010521,50.0021,243.2140,238.9254,121.0613,0,U,69577,999,45,.14165E-4,-.129E-5,0
GUOWANG OBJECT G,2026-137G,2026-06-20T05:52:51.438720,13.92174626,.0010428,49.9972,243.2013,238.5944,121.3936,0,U,69578,999,45,.14163E-4,-.129E-5,0
GUOWANG OBJECT H,2026-137H,2026-06-19T17:49:07.972896,13.92227018,.00101,50.0006,245.2157,240.0569,119.9328,0,U,69579,999,38,.31439E-4,-.106E-5,0
GUOWANG OBJECT J,2026-137J,2026-06-19T17:48:44.898912,13.92365581,.0009514,49.9986,245.2101,236.3544,123.6448,0,U,69580,999,38,.33282E-4,-.104E-5,0
CENTISPACE-1 GROUP 05 OBJECT A,2026-138A,2026-06-19T18:06:00.112608,14.15547701,.00098841,55.1436,271.6759,281.7628,78.2237,0,U,69582,999,38,-.17381871E-4,-.188E-5,0
CENTISPACE-1 GROUP 05 OBJECT B,2026-138B,2026-06-18T11:35:25.266912,14.15750919,.0009095,55.1443,276.3679,279.3206,80.6740,0,U,69583,999,20,.2203E-4,-.11E-5,0
CENTISPACE-1 GROUP 05 OBJECT C,2026-138C,2026-06-18T11:35:19.171392,14.15830371,.0008531,55.1452,276.3744,279.2700,80.7310,0,U,69584,999,20,.23745E-4,-.107E-5,0
CENTISPACE-1 GROUP 05 OBJECT D,2026-138D,2026-06-19T11:18:25.243200,14.15929535,.00082805,55.1437,272.7109,282.4408,77.5640,0,U,69585,999,34,.88500785E-4,.22E-6,0
CENTISPACE-1 GROUP 05 OBJECT E,2026-138E,2026-06-19T02:49:59.883744,14.15995160,.00079697,55.1434,274.0220,282.0805,77.9276,0,U,69586,999,29,.13903389E-3,.122E-5,0
CENTISPACE-1 GROUP 05 OBJECT F,2026-138F,2026-06-18T09:53:26.572704,14.16000241,.0008297,55.1465,276.6321,285.7708,74.2351,0,U,69587,999,19,.28096E-4,-.98E-6,0
CENTISPACE-1 GROUP 05 OBJECT G,2026-138G,2026-06-18T11:34:52.663872,14.16170753,.000705,55.1448,276.3650,279.9943,80.0236,0,U,69588,999,20,.29348E-4,-.95E-6,0
SPACEMOBILE-008,2026-139A,2026-06-19T17:13:38.320032,15.12496262,.00035085,52.9946,251.0804,328.8183,31.2599,0,U,69589,999,37,.22000827E-4,.88E-6,0
SPACEMOBILE-009,2026-139B,2026-06-19T17:13:15.189888,15.12664947,.00036217,52.9926,251.0769,340.8245,19.2610,0,U,69590,999,36,.16998806E-4,0,0
SPACEMOBILE-010,2026-139C,2026-06-19T17:13:00.788736,15.12771431,.00034407,52.9949,251.0787,347.5695,12.5211,0,U,69591,999,36,.2400661E-4,.125E-5,0
CENTISPACE-1 GROUP 05 OBJECT J,2026-138J,2026-06-20T05:56:40.384896,14.15929123,.0008316,55.1436,269.8423,285.1672,74.8383,0,U,69636,999,42,-.10629E-4,-.175E-5,0
